{
  "type": "FeatureCollection",
  "features": [
    {
      "type": "Feature",
      "properties": {
        "norad_id": 38857,
        "name": "GSAT0103 (GALILEO-FM3)",
        "group": "gnss",
        "lat": -3.094272978973458,
        "lon": -71.0409729750205,
        "alt_km": 23222.17820451968,
        "timestamp": "2025-12-05T14:45:15.543381+00:00",
        "meta_object_name": "GSAT0103 (GALILEO-FM3)",
        "meta_object_id": "2012-055A",
        "meta_epoch": "2025-12-01T05:01:21.613152",
        "meta_mean_motion": 1.70473256,
        "meta_eccentricity": 0.00023005,
        "meta_inclination": 55.6823,
        "meta_ra_of_asc_node": 106.9832,
        "meta_arg_of_pericenter": 267.1494,
        "meta_mean_anomaly": 92.7944,
        "meta_ephemeris_type": 0,
        "meta_classification_type": "U",
        "meta_norad_cat_id": 38857,
        "meta_element_set_no": 999,
        "meta_rev_at_epoch": 8163,
        "meta_bstar": 0,
        "meta_mean_motion_dot": 4.2e-07,
        "meta_mean_motion_ddot": 0,
        "tle_line1": "1 38857U 12055A   25335.20927793  .00000042  00000+0  00000+0 0  9995",
        "tle_line2": "2 38857  55.6823 106.9832 0002300 267.1494  92.7944  1.70473256 81637"
      },
      "geometry": {
        "type": "Point",
        "coordinates": [
          -71.0409729750205,
          -3.094272978973458
        ]
      }
    },
    {
      "type": "Feature",
      "properties": {
        "norad_id": 38953,
        "name": "BEIDOU-2 G6 (C02)",
        "group": "gnss",
        "lat": -3.2211672692889786,
        "lon": 20.102004006713617,
        "alt_km": 35756.798609266014,
        "timestamp": "2025-12-05T14:45:15.543393+00:00",
        "meta_object_name": "BEIDOU-2 G6 (C02)",
        "meta_object_id": "2012-059A",
        "meta_epoch": "2025-12-04T17:33:05.126976",
        "meta_mean_motion": 1.00270477,
        "meta_eccentricity": 0.0007414,
        "meta_inclination": 3.9275,
        "meta_ra_of_asc_node": 75.582,
        "meta_arg_of_pericenter": 289.5187,
        "meta_mean_anomaly": 56.0172,
        "meta_ephemeris_type": 0,
        "meta_classification_type": "U",
        "meta_norad_cat_id": 38953,
        "meta_element_set_no": 999,
        "meta_rev_at_epoch": 4795,
        "meta_bstar": 0,
        "meta_mean_motion_dot": -1.64e-06,
        "meta_mean_motion_ddot": 0,
        "tle_line1": "1 38953U 12059A   25338.73130934 -.00000164  00000+0  00000+0 0  9996",
        "tle_line2": "2 38953   3.9275  75.5820 0007414 289.5187  56.0172  1.00270477 47953"
      },
      "geometry": {
        "type": "Point",
        "coordinates": [
          20.102004006713617,
          -3.2211672692889786
        ]
      }
    },
    {
      "type": "Feature",
      "properties": {
        "norad_id": 38977,
        "name": "LUCH 5B (SDCM/PRN 125)",
        "group": "gnss",
        "lat": -7.4674338587768725,
        "lon": -80.81121223318426,
        "alt_km": 35762.321812406844,
        "timestamp": "2025-12-05T14:45:15.543407+00:00",
        "meta_object_name": "LUCH 5B (SDCM/PRN 125)",
        "meta_object_id": "2012-061A",
        "meta_epoch": "2025-12-04T01:12:49.528800",
        "meta_mean_motion": 1.00268796,
        "meta_eccentricity": 0.00076251,
        "meta_inclination": 10.0615,
        "meta_ra_of_asc_node": 51.7844,
        "meta_arg_of_pericenter": 190.1475,
        "meta_mean_anomaly": 193.0165,
        "meta_ephemeris_type": 0,
        "meta_classification_type": "U",
        "meta_norad_cat_id": 38977,
        "meta_element_set_no": 999,
        "meta_rev_at_epoch": 4765,
        "meta_bstar": 0,
        "meta_mean_motion_dot": -1.29e-06,
        "meta_mean_motion_ddot": 0,
        "tle_line1": "1 38977U 12061A   25338.05057325 -.00000129  00000+0  00000+0 0  9993",
        "tle_line2": "2 38977  10.0615  51.7844 0007625 190.1475 193.0165  1.00268796 47651"
      },
      "geometry": {
        "type": "Point",
        "coordinates": [
          -80.81121223318426,
          -7.4674338587768725
        ]
      }
    },
    {
      "type": "Feature",
      "properties": {
        "norad_id": 39155,
        "name": "COSMOS 2485 (747)",
        "group": "gnss",
        "lat": 27.131096040645023,
        "lon": 93.72176303475513,
        "alt_km": 19186.103446525485,
        "timestamp": "2025-12-05T14:45:15.543419+00:00",
        "meta_object_name": "COSMOS 2485 (747)",
        "meta_object_id": "2013-019A",
        "meta_epoch": "2025-12-02T06:58:21.505152",
        "meta_mean_motion": 2.13102877,
        "meta_eccentricity": 0.00245683,
        "meta_inclination": 65.3079,
        "meta_ra_of_asc_node": 80.2187,
        "meta_arg_of_pericenter": 229.0905,
        "meta_mean_anomaly": 130.6936,
        "meta_ephemeris_type": 0,
        "meta_classification_type": "U",
        "meta_norad_cat_id": 39155,
        "meta_element_set_no": 999,
        "meta_rev_at_epoch": 9808,
        "meta_bstar": 0,
        "meta_mean_motion_dot": -1.8e-07,
        "meta_mean_motion_ddot": 0,
        "tle_line1": "1 39155U 13019A   25336.29052668 -.00000018  00000+0  00000+0 0  9992",
        "tle_line2": "2 39155  65.3079  80.2187 0024568 229.0905 130.6936  2.13102877 98087"
      },
      "geometry": {
        "type": "Point",
        "coordinates": [
          93.72176303475513,
          27.131096040645023
        ]
      }
    },
    {
      "type": "Feature",
      "properties": {
        "norad_id": 39166,
        "name": "GPS BIIF-4  (PRN 27)",
        "group": "gnss",
        "lat": -54.55321588709409,
        "lon": -167.64613133031736,
        "alt_km": 20444.431567407388,
        "timestamp": "2025-12-05T14:45:15.543430+00:00",
        "meta_object_name": "GPS BIIF-4  (PRN 27)",
        "meta_object_id": "2013-023A",
        "meta_epoch": "2025-12-02T17:50:49.750368",
        "meta_mean_motion": 2.00565046,
        "meta_eccentricity": 0.0137297,
        "meta_inclination": 54.6608,
        "meta_ra_of_asc_node": 276.9746,
        "meta_arg_of_pericenter": 48.5033,
        "meta_mean_anomaly": 312.6627,
        "meta_ephemeris_type": 0,
        "meta_classification_type": "U",
        "meta_norad_cat_id": 39166,
        "meta_element_set_no": 999,
        "meta_rev_at_epoch": 9194,
        "meta_bstar": 0,
        "meta_mean_motion_dot": -3.8e-07,
        "meta_mean_motion_ddot": 0,
        "tle_line1": "1 39166U 13023A   25336.74363137 -.00000038  00000+0  00000+0 0  9997",
        "tle_line2": "2 39166  54.6608 276.9746 0137297  48.5033 312.6627  2.00565046 91947"
      },
      "geometry": {
        "type": "Point",
        "coordinates": [
          -167.64613133031736,
          -54.55321588709409
        ]
      }
    },
    {
      "type": "Feature",
      "properties": {
        "norad_id": 39199,
        "name": "IRNSS-1A",
        "group": "gnss",
        "lat": -33.98143247954166,
        "lon": -5.377711105883195,
        "alt_km": 35802.82182689754,
        "timestamp": "2025-12-05T14:45:15.543442+00:00",
        "meta_object_name": "IRNSS-1A",
        "meta_object_id": "2013-034A",
        "meta_epoch": "2025-12-02T19:49:26.431104",
        "meta_mean_motion": 1.00279053,
        "meta_eccentricity": 0.00216608,
        "meta_inclination": 35.2852,
        "meta_ra_of_asc_node": 66.6964,
        "meta_arg_of_pericenter": 185.4059,
        "meta_mean_anomaly": 172.3398,
        "meta_ephemeris_type": 0,
        "meta_classification_type": "U",
        "meta_norad_cat_id": 39199,
        "meta_element_set_no": 999,
        "meta_rev_at_epoch": 4539,
        "meta_bstar": 0,
        "meta_mean_motion_dot": 6.5e-07,
        "meta_mean_motion_ddot": 0,
        "tle_line1": "1 39199U 13034A   25336.82600036  .00000065  00000+0  00000+0 0  9995",
        "tle_line2": "2 39199  35.2852  66.6964 0021660 185.4059 172.3398  1.00279053 45393"
      },
      "geometry": {
        "type": "Point",
        "coordinates": [
          -5.377711105883195,
          -33.98143247954166
        ]
      }
    },
    {
      "type": "Feature",
      "properties": {
        "norad_id": 39533,
        "name": "GPS BIIF-5  (PRN 30)",
        "group": "gnss",
        "lat": -52.984304725454315,
        "lon": 79.26337727147661,
        "alt_km": 20053.29747433571,
        "timestamp": "2025-12-05T14:45:15.543454+00:00",
        "meta_object_name": "GPS BIIF-5  (PRN 30)",
        "meta_object_id": "2014-008A",
        "meta_epoch": "2025-12-03T17:38:50.271648",
        "meta_mean_motion": 2.00573835,
        "meta_eccentricity": 0.0078981,
        "meta_inclination": 53.6299,
        "meta_ra_of_asc_node": 157.292,
        "meta_arg_of_pericenter": 226.3864,
        "meta_mean_anomaly": 132.9903,
        "meta_ephemeris_type": 0,
        "meta_classification_type": "U",
        "meta_norad_cat_id": 39533,
        "meta_element_set_no": 999,
        "meta_rev_at_epoch": 8576,
        "meta_bstar": 0,
        "meta_mean_motion_dot": 9.7e-07,
        "meta_mean_motion_ddot": 0,
        "tle_line1": "1 39533U 14008A   25337.73530407  .00000097  00000+0  00000+0 0  9999",
        "tle_line2": "2 39533  53.6299 157.2920 0078981 226.3864 132.9903  2.00573835 85765"
      },
      "geometry": {
        "type": "Point",
        "coordinates": [
          79.26337727147661,
          -52.984304725454315
        ]
      }
    }
  ]
}